QIANFAN-57              
1 62787U 25016C   26014.19125400  .00000116  00000+0  16059-3 0  9990
2 62787  88.9776  99.8538 0002512  96.4091 263.7346 13.50987517 51584
QIANFAN-58              
1 62788U 25016D   26014.08832379  .00000111  00000+0  15281-3 0  9990
2 62788  88.9745  99.6861 0012476 244.1129 115.8737 13.50989285 51611
QIANFAN-59              
1 62789U 25016E   26014.18707910  .00000126  00000+0  17620-3 0  9999
2 62789  88.9769  99.7573 0012753 248.1976 111.7819 13.50985573 51624
QIANFAN-60              
1 62790U 25016F   26014.14590945  .00000128  00000+0  18024-3 0  9996
2 62790  88.9750  99.7268 0014370 244.8976 115.0684 13.50994739 51606
QIANFAN-61              
1 62791U 25016G   26014.10477411  .00000105  00000+0  14373-3 0  9993
2 62791  88.9818  99.9160 0013317 244.0534 115.9245 13.50984939 51611
QIANFAN-62              
1 62792U 25016H   26014.18297721  .00000119  00000+0  16550-3 0  9990
2 62792  88.9764  99.7589 0014689 244.7039 115.2591 13.50987636 51619
QIANFAN-63              
1 62793U 25016J   26014.20763667  .00000098  00000+0  13286-3 0  9990
2 62793  88.9771  99.7101 0014631 250.4613 109.4958 13.50985814 51659
QIANFAN-64              
1 62794U 25016K   26014.17470695  .00000093  00000+0  12546-3 0  9996
2 62794  88.9757  99.6831 0012731 242.0833 117.9029 13.50984338 51645
